STARLINK-35480          
1 66242U 25245J   25330.41668980 -.02299095  00000+0 -60860-1 0  9991
2 66242  53.1606  46.3458 0000977  74.4362  14.1872 15.41297980  5488
STARLINK-35495          
1 66243U 25245K   25330.41668980  .00004114  00000+0  11282-3 0  9990
2 66243  53.1604  46.3963 0001577  80.7262 343.0585 15.39609211  5480
STARLINK-35503          
1 66245U 25245M   25330.41668980 -.02367815  00000+0 -62887-1 0  9991
2 66245  53.1606  46.3406 0000864 110.6974 339.7748 15.41306295  5434
STARLINK-35434          
1 66246U 25245N   25330.41668980 -.02049815  00000+0 -49773-1 0  9998
2 66246  53.1603  46.3060 0001160  61.0047  46.6358 15.44015026  5262
STARLINK-35481          
1 66247U 25245P   25330.41668980 -.02063736  00000+0 -50161-1 0  9990
2 66247  53.1601  46.3024 0001202  67.7784  41.7317 15.44010139  5484
STARLINK-35416          
1 66248U 25245Q   25330.41668980 -.02094086  00000+0 -46193-1 0  9993
2 66248  53.1603  46.2819 0001320  68.3460  51.9292 15.46868410  5432
STARLINK-35304          
1 66249U 25245R   25330.39335058  .00222017  00000+0  34962-2 0  9993
2 66249  53.1612  46.3746 0022905 142.0719 218.1910 15.52024947  5195
STARLINK-35338          
1 66250U 25245S   25329.55577106  .00124564  00000+0  22114-2 0  9997
2 66250  53.1613  50.3881 0000996  75.5351 284.5769 15.49318460  5170
STARLINK-35485          
1 66251U 25245T   25330.39403549  .00092770  00000+0  16509-2 0  9995
2 66251  53.1600  46.3766 0001656  54.0400 306.0763 15.49402004  5199
STARLINK-35483          
1 66252U 25245U   25330.39299249  .00173187  00000+0  27519-2 0  9991
2 66252  53.1594  46.3694 0012944 223.9258 136.0724 15.52156344  5355
STARLINK-35486          
1 66253U 25245V   25329.55439739  .00115554  00000+0  20551-2 0  9991
2 66253  53.1605  50.3782 0001058  81.4006 278.7123 15.49309162  5063
