CCSDS_OMM_VERS = 2.0
CREATION_DATE  = 
ORIGINATOR     = 

OBJECT_NAME    = STARLINK-35480
OBJECT_ID      = 2025-245J
CENTER_NAME    = EARTH
REF_FRAME      = TEME
TIME_SYSTEM    = UTC
MEAN_ELEMENT_THEORY = SGP/SGP4

EPOCH          = 2025-11-26T10:00:01.998720
MEAN_MOTION    = 15.41297980
ECCENTRICITY   = .0000977
INCLINATION    = 53.1606
RA_OF_ASC_NODE = 46.3458
ARG_OF_PERICENTER = 74.4362
MEAN_ANOMALY   = 14.1872

EPHEMERIS_TYPE = 0
CLASSIFICATION_TYPE = U
NORAD_CAT_ID   = 66242
ELEMENT_SET_NO = 999
REV_AT_EPOCH   = 548
BSTAR          = -.6086E-1
MEAN_MOTION_DOT = -.2299095E-1
MEAN_MOTION_DDOT = 0

CCSDS_OMM_VERS = 2.0
CREATION_DATE  = 
ORIGINATOR     = 

OBJECT_NAME    = STARLINK-35495
OBJECT_ID      = 2025-245K
CENTER_NAME    = EARTH
REF_FRAME      = TEME
TIME_SYSTEM    = UTC
MEAN_ELEMENT_THEORY = SGP/SGP4

EPOCH          = 2025-11-26T10:00:01.998720
MEAN_MOTION    = 15.39609211
ECCENTRICITY   = .0001577
INCLINATION    = 53.1604
RA_OF_ASC_NODE = 46.3963
ARG_OF_PERICENTER = 80.7262
MEAN_ANOMALY   = 343.0585

EPHEMERIS_TYPE = 0
CLASSIFICATION_TYPE = U
NORAD_CAT_ID   = 66243
ELEMENT_SET_NO = 999
REV_AT_EPOCH   = 548
BSTAR          = .11282E-3
MEAN_MOTION_DOT = .4114E-4
MEAN_MOTION_DDOT = 0

CCSDS_OMM_VERS = 2.0
CREATION_DATE  = 
ORIGINATOR     = 

OBJECT_NAME    = STARLINK-35503
OBJECT_ID      = 2025-245M
CENTER_NAME    = EARTH
REF_FRAME      = TEME
TIME_SYSTEM    = UTC
MEAN_ELEMENT_THEORY = SGP/SGP4

EPOCH          = 2025-11-26T10:00:01.998720
MEAN_MOTION    = 15.41306295
ECCENTRICITY   = .0000864
INCLINATION    = 53.1606
RA_OF_ASC_NODE = 46.3406
ARG_OF_PERICENTER = 110.6974
MEAN_ANOMALY   = 339.7748

EPHEMERIS_TYPE = 0
CLASSIFICATION_TYPE = U
NORAD_CAT_ID   = 66245
ELEMENT_SET_NO = 999
REV_AT_EPOCH   = 543
BSTAR          = -.62887E-1
MEAN_MOTION_DOT = -.2367815E-1
MEAN_MOTION_DDOT = 0

CCSDS_OMM_VERS = 2.0
CREATION_DATE  = 
ORIGINATOR     = 

OBJECT_NAME    = STARLINK-35434
OBJECT_ID      = 2025-245N
CENTER_NAME    = EARTH
REF_FRAME      = TEME
TIME_SYSTEM    = UTC
MEAN_ELEMENT_THEORY = SGP/SGP4

EPOCH          = 2025-11-26T10:00:01.998720
MEAN_MOTION    = 15.44015026
ECCENTRICITY   = .000116
INCLINATION    = 53.1603
RA_OF_ASC_NODE = 46.3060
ARG_OF_PERICENTER = 61.0047
MEAN_ANOMALY   = 46.6358

EPHEMERIS_TYPE = 0
CLASSIFICATION_TYPE = U
NORAD_CAT_ID   = 66246
ELEMENT_SET_NO = 999
REV_AT_EPOCH   = 526
BSTAR          = -.49773E-1
MEAN_MOTION_DOT = -.2049815E-1
MEAN_MOTION_DDOT = 0

CCSDS_OMM_VERS = 2.0
CREATION_DATE  = 
ORIGINATOR     = 

OBJECT_NAME    = STARLINK-35481
OBJECT_ID      = 2025-245P
CENTER_NAME    = EARTH
REF_FRAME      = TEME
TIME_SYSTEM    = UTC
MEAN_ELEMENT_THEORY = SGP/SGP4

EPOCH          = 2025-11-26T10:00:01.998720
MEAN_MOTION    = 15.44010139
ECCENTRICITY   = .0001202
INCLINATION    = 53.1601
RA_OF_ASC_NODE = 46.3024
ARG_OF_PERICENTER = 67.7784
MEAN_ANOMALY   = 41.7317

EPHEMERIS_TYPE = 0
CLASSIFICATION_TYPE = U
NORAD_CAT_ID   = 66247
ELEMENT_SET_NO = 999
REV_AT_EPOCH   = 548
BSTAR          = -.50161E-1
MEAN_MOTION_DOT = -.2063736E-1
MEAN_MOTION_DDOT = 0

CCSDS_OMM_VERS = 2.0
CREATION_DATE  = 
ORIGINATOR     = 

OBJECT_NAME    = STARLINK-35416
OBJECT_ID      = 2025-245Q
CENTER_NAME    = EARTH
REF_FRAME      = TEME
TIME_SYSTEM    = UTC
MEAN_ELEMENT_THEORY = SGP/SGP4

EPOCH          = 2025-11-26T10:00:01.998720
MEAN_MOTION    = 15.46868410
ECCENTRICITY   = .000132
INCLINATION    = 53.1603
RA_OF_ASC_NODE = 46.2819
ARG_OF_PERICENTER = 68.3460
MEAN_ANOMALY   = 51.9292

EPHEMERIS_TYPE = 0
CLASSIFICATION_TYPE = U
NORAD_CAT_ID   = 66248
ELEMENT_SET_NO = 999
REV_AT_EPOCH   = 543
BSTAR          = -.46193E-1
MEAN_MOTION_DOT = -.2094086E-1
MEAN_MOTION_DDOT = 0

CCSDS_OMM_VERS = 2.0
CREATION_DATE  = 
ORIGINATOR     = 

OBJECT_NAME    = STARLINK-35304
OBJECT_ID      = 2025-245R
CENTER_NAME    = EARTH
REF_FRAME      = TEME
TIME_SYSTEM    = UTC
MEAN_ELEMENT_THEORY = SGP/SGP4

EPOCH          = 2025-11-26T09:26:25.490112
MEAN_MOTION    = 15.52024947
ECCENTRICITY   = .0022905
INCLINATION    = 53.1612
RA_OF_ASC_NODE = 46.3746
ARG_OF_PERICENTER = 142.0719
MEAN_ANOMALY   = 218.1910

EPHEMERIS_TYPE = 0
CLASSIFICATION_TYPE = U
NORAD_CAT_ID   = 66249
ELEMENT_SET_NO = 999
REV_AT_EPOCH   = 519
BSTAR          = .34962E-2
MEAN_MOTION_DOT = .222017E-2
MEAN_MOTION_DDOT = 0

CCSDS_OMM_VERS = 2.0
CREATION_DATE  = 
ORIGINATOR     = 

OBJECT_NAME    = STARLINK-35338
OBJECT_ID      = 2025-245S
CENTER_NAME    = EARTH
REF_FRAME      = TEME
TIME_SYSTEM    = UTC
MEAN_ELEMENT_THEORY = SGP/SGP4

EPOCH          = 2025-11-25T13:20:18.619584
MEAN_MOTION    = 15.49318460
ECCENTRICITY   = .00009964
INCLINATION    = 53.1613
RA_OF_ASC_NODE = 50.3881
ARG_OF_PERICENTER = 75.5351
MEAN_ANOMALY   = 284.5769

EPHEMERIS_TYPE = 0
CLASSIFICATION_TYPE = U
NORAD_CAT_ID   = 66250
ELEMENT_SET_NO = 999
REV_AT_EPOCH   = 517
BSTAR          = .22114475E-2
MEAN_MOTION_DOT = .124564E-2
MEAN_MOTION_DDOT = 0

CCSDS_OMM_VERS = 2.0
CREATION_DATE  = 
ORIGINATOR     = 

OBJECT_NAME    = STARLINK-35485
OBJECT_ID      = 2025-245T
CENTER_NAME    = EARTH
REF_FRAME      = TEME
TIME_SYSTEM    = UTC
MEAN_ELEMENT_THEORY = SGP/SGP4

EPOCH          = 2025-11-26T09:27:24.666336
MEAN_MOTION    = 15.49402004
ECCENTRICITY   = .0001656
INCLINATION    = 53.1600
RA_OF_ASC_NODE = 46.3766
ARG_OF_PERICENTER = 54.0400
MEAN_ANOMALY   = 306.0763

EPHEMERIS_TYPE = 0
CLASSIFICATION_TYPE = U
NORAD_CAT_ID   = 66251
ELEMENT_SET_NO = 999
REV_AT_EPOCH   = 519
BSTAR          = .16509E-2
MEAN_MOTION_DOT = .9277E-3
MEAN_MOTION_DDOT = 0

CCSDS_OMM_VERS = 2.0
CREATION_DATE  = 
ORIGINATOR     = 

OBJECT_NAME    = STARLINK-35483
OBJECT_ID      = 2025-245U
CENTER_NAME    = EARTH
REF_FRAME      = TEME
TIME_SYSTEM    = UTC
MEAN_ELEMENT_THEORY = SGP/SGP4

EPOCH          = 2025-11-26T09:25:54.551136
MEAN_MOTION    = 15.52156344
ECCENTRICITY   = .0012944
INCLINATION    = 53.1594
RA_OF_ASC_NODE = 46.3694
ARG_OF_PERICENTER = 223.9258
MEAN_ANOMALY   = 136.0724

EPHEMERIS_TYPE = 0
CLASSIFICATION_TYPE = U
NORAD_CAT_ID   = 66252
ELEMENT_SET_NO = 999
REV_AT_EPOCH   = 535
BSTAR          = .27519E-2
MEAN_MOTION_DOT = .173187E-2
MEAN_MOTION_DDOT = 0

CCSDS_OMM_VERS = 2.0
CREATION_DATE  = 
ORIGINATOR     = 

OBJECT_NAME    = STARLINK-35486
OBJECT_ID      = 2025-245V
CENTER_NAME    = EARTH
REF_FRAME      = TEME
TIME_SYSTEM    = UTC
MEAN_ELEMENT_THEORY = SGP/SGP4

EPOCH          = 2025-11-25T13:18:19.934496
MEAN_MOTION    = 15.49309162
ECCENTRICITY   = .00010587
INCLINATION    = 53.1605
RA_OF_ASC_NODE = 50.3782
ARG_OF_PERICENTER = 81.4006
MEAN_ANOMALY   = 278.7123

EPHEMERIS_TYPE = 0
CLASSIFICATION_TYPE = U
NORAD_CAT_ID   = 66253
ELEMENT_SET_NO = 999
REV_AT_EPOCH   = 506
BSTAR          = .20551149E-2
MEAN_MOTION_DOT = .115554E-2
MEAN_MOTION_DDOT = 0

